[{"OBJECT_NAME":"STARLINK-2498","OBJECT_ID":"2021-036BC","EPOCH":"2026-03-10T00:00:02.999808","MEAN_MOTION":15.24739601,"ECCENTRICITY":0.00016198,"INCLINATION":53.1352,"RA_OF_ASC_NODE":99.5627,"ARG_OF_PERICENTER":86.5497,"MEAN_ANOMALY":127.7811,"EPHEMERIS_TYPE":0,"CLASSIFICATION_TYPE":"U","NORAD_CAT_ID":48326,"ELEMENT_SET_NO":999,"REV_AT_EPOCH":579,"BSTAR":0.033082755,"MEAN_MOTION_DOT":0.00894242,"MEAN_MOTION_DDOT":0},{"OBJECT_NAME":"UTMN 2 (RS27S)","OBJECT_ID":"2023-091AP","EPOCH":"2026-03-09T23:09:07.917408","MEAN_MOTION":15.29495965,"ECCENTRICITY":0.00097379,"INCLINATION":97.5194,"RA_OF_ASC_NODE":134.949,"ARG_OF_PERICENTER":76.0788,"MEAN_ANOMALY":284.1534,"EPHEMERIS_TYPE":0,"CLASSIFICATION_TYPE":"U","NORAD_CAT_ID":57203,"ELEMENT_SET_NO":999,"REV_AT_EPOCH":14936,"BSTAR":0.00056135701,"MEAN_MOTION_DOT":0.00016013,"MEAN_MOTION_DDOT":0}]
